{
  "norad_id": 61590,
  "name": "STARLINK-32413",
  "history": [
    {
      "epoch": "2026-03-28T22:07:18.079392",
      "apogee_km": 476.29963385585233,
      "perigee_km": 474.13918178185213,
      "latitude_deg": 53.095299394024615,
      "longitude_deg": 67.48675488005392,
      "semi_major_axis_km": 6853.356407818852,
      "eccentricity": 0.00015762,
      "inclination_deg": 53.1616,
      "raan_deg": 336.0134,
      "arg_perigee_deg": 85.0981,
      "mean_anomaly_deg": 275.02,
      "mean_motion_rev_day": 15.30198547
    },
    {
      "epoch": "2026-03-28T23:41:21.392160",
      "apogee_km": 476.18338552325804,
      "perigee_km": 474.27677880100055,
      "latitude_deg": 24.35023963810802,
      "longitude_deg": 73.75710239983164,
      "semi_major_axis_km": 6853.367082162129,
      "eccentricity": 0.0001391,
      "inclination_deg": 53.1617,
      "raan_deg": 335.7099,
      "arg_perigee_deg": 83.3422,
      "mean_anomaly_deg": 276.7737,
      "mean_motion_rev_day": 15.30194972
    }
  ]
}